#dP2022 10 28 18  0  0.00000000      96 __u+U ITR00 EXT  IAC
## 2233 496800.00000000   900.00000000 59880 0.7500000000000
+  116   C06C07C08C09C10C11C12C13C14C16C19C20C21C22C23C24C25
+        C26C27C28C29C30C32C33C34C35C36C37C38C39C40C41C42C43
+        C44C45C46E01E03E04E05E07E08E09E10E11E12E13E14E15E18
+        E19E21E24E25E26E27E30E31E33E34E36G01G02G03G04G05G06
+        G07G08G09G10G11G12G13G14G15G16G17G18G19G20G21G22G23
+        G24G25G26G27G29G30G31G32J02J03J04R01R02R03R04R05R07
+        R08R09R11R12R13R14R15R17R18R19R20R21R22R24  0  0  0
++        11  9  8 10  9 11  9  8 10 11  6  7  8  9  7  9  7
++         9 10  9  8  9  7  8 10  8  9  8  8 11 11  7  9  8
++         9  9  8  9  8  8  8  8  8  8  7  7  7  7  8  8  9
++         9  9  9  7  7  8  8  9  7  8  8  9  7  8  7  7  7
++         8  7  7  8 11  8  8  8  9  8  7  9  8  7  8  8  7
++         8  6  8  8  8  6  9  8  9  8 11  9  8  7  7  9  9
++         6  8  8  8 10 10  8  9 10  9 10  8  7  8  0  0  0
%c M  cc GPS ccc cccc cccc cccc cccc ccccc ccccc ccccc ccccc
%c cc cc ccc ccc cccc cccc cccc cccc ccccc ccccc ccccc ccccc
%f  0.0000000  0.000000000  0.00000000000  0.000000000000000
%f  0.0000000  0.000000000  0.00000000000  0.000000000000000
%i    0    0    0    0      0      0      0      0         0
%i    0    0    0    0      0      0      0      0         0
/* IAC                                ULTRA-RAPID PREDICTION
/* S/V CLOCKS ARE ALIGNED TO GNSS TIME                      
/* G:C1WC2W R:C1PC2P E:C1XC5X C:C2IC6I J:C1CC2S             
/* PCV:IGS14_2218 OL/AL:FES2004  NONE     YN ORB:CoN CLK:CoN
*  2022 10 29 13 15  0.00000000
PC06 -15197.787186  38570.876853   6989.514216    881.725495
PC07  -2923.033392  32513.558063  26817.539666    288.814138
PC08 -14719.439365  20195.417792 -34014.498362    503.329388
PC09  -8238.753770  37510.477658  17170.317019   -821.402620
PC10   4451.729106  35718.885360  22645.527860     76.582584
PC11  -7603.637441 -17174.827652  20697.587819   -323.353186
PC12   5424.299915 -26382.038805   7302.703185   -462.940440
PC13  -4196.735545  22317.907343 -35428.768820    119.524742
PC14 -18159.191883 -21134.070187   -916.555362    608.594874
PC16 -18174.745272  37811.109004   2472.979252    123.687699
PC19  21254.639068  15029.310051  10087.898133   -921.762343
PC20  13384.860142  23567.625478  -6689.251927    852.176183
PC21   3203.871093 -18475.368224  20669.138130   -706.885811
PC22  17223.029833  -2541.761562  21804.217053   -823.549082
PC23 -26912.253875   6651.461279   3251.283060   -791.320056
PC24  -5591.990150 -15516.314893 -22521.283794   -844.432517
PC25 -24154.939012  -5064.075541 -13055.515294     16.772817
PC26  13201.569391 -16023.490486 -18641.263266    -28.349645
PC27 -11053.319066  25587.681370   1254.349094     43.264795
PC28 -17785.148611  13698.048074  16588.673104     29.845390
PC29  14407.615603   6981.818054 -22859.478757     33.317630
PC30   2474.094668  23637.483801 -14615.598427      0.744594
PC32  -3138.083137  18453.296799 -20691.779300   -739.354393
PC33 -21328.265091 -14976.449883  -9970.354843   -923.909371
PC34  -3290.860302 -23019.843274  15431.866098     27.450530
PC35  17531.097117 -12842.221154 -17528.362401     63.944086
PC36  23634.555531   6047.906654  13563.086892   -882.315986
PC37 -14936.235034  15396.608209  17878.734224   -664.619860
PC38 -22321.717579  21021.567391 -29012.800488     34.429141
PC39 -18973.638451  37414.296024  -3018.163993     -0.747152
PC40  -6498.998575  27887.606294  31026.472508     -7.010291
PC41 -17531.044534   2062.309844 -21571.194062   -221.373200
PC42 -12501.568079 -23685.137268   7850.239415   -563.742934
PC43 -14144.530118  -7907.483529  22713.891218     22.149828
PC44  10277.676635 -25918.687155  -1484.377299     96.908576
PC45  26794.436692  -6849.498016  -3611.345359    -15.784745
PC46   7512.292170  14911.782061  22355.625684     -9.480675
PE01 -24791.257872 -14739.890885  -6672.707540   -555.747227
PE03  15414.338415  17951.771869  17779.701098   -614.638028
PE04 -16733.130471   3348.782803 -24187.672888  -1147.066988
PE05   4999.152394  29163.625775    773.358344   -129.844543
PE07   8146.059585 -23252.040319  16399.160125   -717.161661
PE08  16575.035332  -3392.153037  24280.696803   -623.462621
PE09  -8110.630823  23128.009946 -16610.161705   -710.301483
PE10 -24081.876804  16936.104176   3140.927992   -487.065960
PE11 -19007.547815  21450.952581  -7403.065086   1570.262769
PE12 -25037.695992   9962.885788  12241.604132   -248.321428
PE13  19539.577283 -21238.283022   6576.127268    430.665858
PE14  18885.970246  13371.476934 -22519.132884     41.482876
PE15  24960.187907  -9842.480607 -12488.448368    710.919680
PE18 -15348.481413  -1826.993378  18420.272674   -805.214560
PE19 -14337.759282 -20340.730808 -16033.513379  -4137.661055
PE21  -9627.821396 -18922.474390 -20623.827805   -491.541035
PE24 -13257.322398  12098.276544  23536.341083   -917.918430
PE25   9280.768742  18914.340854  20799.168337   -591.386211
PE26   1787.829366 -19810.653409  21921.052407  -1783.280794
PE27  12170.301489 -12680.528863 -23806.768114   -426.858935
PE30  26875.103750   1630.628672 -12280.819551   -955.370816
PE31 -26604.926218   -957.723626  12961.075398   -506.880633
PE33 -15620.263429  -7291.778283  24067.686213   -455.154499
PE34  15757.130016   7131.333233 -24021.596090    -11.907158
PE36  -2728.971790  20069.164862 -21583.287673   -452.993227
PG01  -8081.985080  18707.348134 -17152.597693    259.921619
PG02   6441.747326 -20045.132163  16954.660627   -640.283770
PG03    350.893078  16160.756328 -21220.672685   -369.064562
PG04  -1158.967978  26317.447133  -2928.690424    -95.604658
PG05  12763.416766 -10205.682040  20785.564236   -102.250274
PG06  22244.789438  -3634.187205 -14043.808950    504.542894
PG07   8002.883520  13432.052562  21878.477883    293.612306
PG08  -6987.504041  21953.332773  12845.415616    -91.217324
PG09   7787.128108  24068.322492   7943.906514   -276.443522
PG10 -24120.052611 -11520.676448   -283.074378     -9.591732
PG11  23676.777128 -11549.336017  -3219.675788    -31.974560
PG12   1351.556801 -16182.835088 -21304.762490   -297.947192
PG13  12860.703825 -15386.644519  17146.229319    414.947392
PG14  22992.464763  13355.236092   1330.233256    -89.728864
PG15   4432.099250 -22899.847435  11987.769572    -16.884632
PG16 -18319.920109   3985.325873  18714.153827   -526.719417
PG17  12407.999174  14182.062914 -18247.674519    673.213968
PG18  -8983.997528 -11981.431435  21937.442008     -2.547395
PG19  14868.434301   2633.665501 -22097.951941    230.248857
PG20  22860.970853  -2916.895954  13013.291092    474.449547
PG21 -14885.268898  19512.336049  -8519.249737    157.131454
PG22 -15000.525637    913.481622 -21475.690460    354.615854
PG23 -18880.681208 -15981.126307   9846.214137     -1.152084
PG24  10230.832998 -20645.055178 -13165.257033     80.892044
PG25 -10938.746464 -18146.148948 -16476.078610    387.298947
PG26 -24440.963683  -1750.835585  10554.942750    234.118750
PG27 -12802.738767  11614.164732  19828.848902    189.206338
PG29  -4431.461855 -25210.789025   6882.912472   -563.310795
PG30  18173.884907   4798.173221  18948.786792   -537.073599
PG31 -23219.738121   4066.224010 -12831.050203   -198.426213
PG32 -14515.085539 -10645.014978 -19445.477787   -278.791938
PJ02 -27234.560626  22264.898306  28270.498639     -8.438346
PJ03 -32747.492245  25921.367948  10962.044985     -3.679075
PJ04 -23199.847558  22172.605180 -22187.490602    112.280870
PR01    779.237564  18322.751139 -17738.913027     16.993969
PR02  11817.627323  22555.921329   -542.453339    -23.152124
PR03  15483.692527  12745.895981  15759.927594     66.331538
PR04  10251.730485  -3705.676568  23081.336869    162.943016
PR05   -394.127277 -18302.705677  17781.641938    102.032397
PR07 -15426.506845 -12244.790110 -16211.483591     43.366955
PR08 -10272.575708   3881.454951 -22974.709202    -67.849840
PR09 -11615.242423 -10038.015183 -20329.421578     84.652050
PR11 -23387.971358   4221.142926   9259.550196     23.101128
PR12  -8158.529879  10332.415750  21878.853300     22.411808
PR13  10020.686051  10179.697070  21120.205193    -28.311641
PR14  24185.176040   3783.958004   7213.243407     24.178956
PR15  22975.122667  -4445.999988 -10131.332215     92.947009
PR17  11512.185456    995.594889 -22722.329044    573.369944
PR18  16185.726586 -14312.907654 -13573.836586     49.403241
PR19  13625.033012 -21513.996689   1363.925990   -209.047958
PR20    998.413862 -16789.639780  19201.872725    -81.167883
PR21 -12265.959408    636.663721  22365.688729   -345.454395
PR22 -16948.659192  14040.318183  12917.375944     15.063143
PR24    284.475645  16589.109584 -19363.108496    123.294897
EOF
